Observation(METAR):
KLWT 221914Z AUTO 32015G29KT 1/2SM -SN FZFG FEW009 BKN013 OVC019 M06/M08 A3039 RMK AO2 PK WND 33029/1913 P0000 T10611078

Forecast(TAF):
KLWT 221723Z 2218/2318 30020G30KT 1/2SM SN BLSN FEW005 OVC010 
  TEMPO 2218/2222 1/4SM +SN BLSN OVC005 
  FM222200 31016G27KT 1SM -SN BLSN OVC015 
  TEMPO 2222/2224 1/2SM SN BLSN OVC009 
  FM230300 30011KT P6SM SCT200